UNKNOWN                 
1 81439U          26068.14625997  .00000565  00000+0  17224-2 0  9993
2 81439  67.1624 334.7238 0596019 149.9358 213.7328 12.62656224272803
UNKNOWN                 
1 81449U          26068.15335427  .00139351  00000+0  66641-2 0  9994
2 81449  66.7883  96.9262 0023398  16.4363 343.7533 15.17985561646583
UNKNOWN                 
1 81478U          26066.23796052  .00004732  00000+0  16836-2 0  9993
2 81478  98.9512 345.3563 0145558 112.5481  40.4041 14.29031937635009
UNKNOWN                 
1 81488U          26068.13711509  .00000227  00000+0  38396-3 0  9990
2 81488  99.9929 307.0580 0044713 144.5967   8.8535 13.56552760608346
UNKNOWN                 
1 81497U          26060.98000182  .00003724  00000+0  33385-2 0  9990
2 81497 100.2999 328.2356 0027031 170.1750 255.6004 13.84808267227262
UNKNOWN                 
1 81499U          26068.37759819  .00003710  00000+0  10119-2 0  9996
2 81499  74.0487  59.1802 0002672 231.2476 128.8445 14.47700826494952
UNKNOWN                 
1 81535U          26067.43800847  .00001427  00000+0  60007-3 0  9996
2 81535  98.1898 147.6246 0233550 260.4420  97.0295 14.13645497399505
UNKNOWN                 
1 81536U          26068.10941492  .00000663  00000+0  43050-2 0  9993
2 81536 101.9676 295.2231 0019087 110.0955  45.0625 12.55981584562659
UNKNOWN                 
1 81537U          26068.26523485  .00000117  00000+0  94706-4 0  9999
2 81537  71.0382 290.2334 0076287  20.5606 339.8553 14.07159149632636
UNKNOWN                 
1 81552U          26066.25397785  .00000870  00000+0  19458-2 0  9990
2 81552  99.0679 346.3232 0256566 174.9772 185.4012 13.18325114590388
UNKNOWN                 
1 81599U          26065.54603071  .00000030  00000+0  16183-3 0  9991
2 81599  67.2921  99.6646 0246746  22.3697 129.5716 13.31539553596233
UNKNOWN                 
1 81605U          26065.13508409 -.00001613  00000+0 -61990-2 0  9998
2 81605  56.4354 337.3034 0149171 254.5569 103.8838 12.81426946196898
