CCSDS_OMM_VERS = 2.0
CREATION_DATE  = 
ORIGINATOR     = 

OBJECT_NAME    = UNKNOWN
OBJECT_ID      = 
CENTER_NAME    = EARTH
REF_FRAME      = TEME
TIME_SYSTEM    = UTC
MEAN_ELEMENT_THEORY = SGP/SGP4

EPOCH          = 2026-03-09T03:30:36.861408
MEAN_MOTION    = 12.62656224
ECCENTRICITY   = .0596019
INCLINATION    = 67.1624
RA_OF_ASC_NODE = 334.7238
ARG_OF_PERICENTER = 149.9358
MEAN_ANOMALY   = 213.7328

EPHEMERIS_TYPE = 0
CLASSIFICATION_TYPE = U
NORAD_CAT_ID   = 81439
ELEMENT_SET_NO = 999
REV_AT_EPOCH   = 27280
BSTAR          = .17224E-2
MEAN_MOTION_DOT = .565E-5
MEAN_MOTION_DDOT = 0

CCSDS_OMM_VERS = 2.0
CREATION_DATE  = 
ORIGINATOR     = 

OBJECT_NAME    = UNKNOWN
OBJECT_ID      = 
CENTER_NAME    = EARTH
REF_FRAME      = TEME
TIME_SYSTEM    = UTC
MEAN_ELEMENT_THEORY = SGP/SGP4

EPOCH          = 2026-03-09T03:40:49.808928
MEAN_MOTION    = 15.17985561
ECCENTRICITY   = .0023398
INCLINATION    = 66.7883
RA_OF_ASC_NODE = 96.9262
ARG_OF_PERICENTER = 16.4363
MEAN_ANOMALY   = 343.7533

EPHEMERIS_TYPE = 0
CLASSIFICATION_TYPE = U
NORAD_CAT_ID   = 81449
ELEMENT_SET_NO = 999
REV_AT_EPOCH   = 64658
BSTAR          = .66641E-2
MEAN_MOTION_DOT = .139351E-2
MEAN_MOTION_DDOT = 0

CCSDS_OMM_VERS = 2.0
CREATION_DATE  = 
ORIGINATOR     = 

OBJECT_NAME    = UNKNOWN
OBJECT_ID      = 
CENTER_NAME    = EARTH
REF_FRAME      = TEME
TIME_SYSTEM    = UTC
MEAN_ELEMENT_THEORY = SGP/SGP4

EPOCH          = 2026-03-07T05:42:39.788928
MEAN_MOTION    = 14.29031937
ECCENTRICITY   = .0145558
INCLINATION    = 98.9512
RA_OF_ASC_NODE = 345.3563
ARG_OF_PERICENTER = 112.5481
MEAN_ANOMALY   = 40.4041

EPHEMERIS_TYPE = 0
CLASSIFICATION_TYPE = U
NORAD_CAT_ID   = 81478
ELEMENT_SET_NO = 999
REV_AT_EPOCH   = 63500
BSTAR          = .16836E-2
MEAN_MOTION_DOT = .4732E-4
MEAN_MOTION_DDOT = 0

CCSDS_OMM_VERS = 2.0
CREATION_DATE  = 
ORIGINATOR     = 

OBJECT_NAME    = UNKNOWN
OBJECT_ID      = 
CENTER_NAME    = EARTH
REF_FRAME      = TEME
TIME_SYSTEM    = UTC
MEAN_ELEMENT_THEORY = SGP/SGP4

EPOCH          = 2026-03-09T03:17:26.743776
MEAN_MOTION    = 13.56552760
ECCENTRICITY   = .0044713
INCLINATION    = 99.9929
RA_OF_ASC_NODE = 307.0580
ARG_OF_PERICENTER = 144.5967
MEAN_ANOMALY   = 8.8535

EPHEMERIS_TYPE = 0
CLASSIFICATION_TYPE = U
NORAD_CAT_ID   = 81488
ELEMENT_SET_NO = 999
REV_AT_EPOCH   = 60834
BSTAR          = .38396E-3
MEAN_MOTION_DOT = .227E-5
MEAN_MOTION_DDOT = 0

CCSDS_OMM_VERS = 2.0
CREATION_DATE  = 
ORIGINATOR     = 

OBJECT_NAME    = UNKNOWN
OBJECT_ID      = 
CENTER_NAME    = EARTH
REF_FRAME      = TEME
TIME_SYSTEM    = UTC
MEAN_ELEMENT_THEORY = SGP/SGP4

EPOCH          = 2026-03-01T23:31:12.157248
MEAN_MOTION    = 13.84808267
ECCENTRICITY   = .0027031
INCLINATION    = 100.2999
RA_OF_ASC_NODE = 328.2356
ARG_OF_PERICENTER = 170.1750
MEAN_ANOMALY   = 255.6004

EPHEMERIS_TYPE = 0
CLASSIFICATION_TYPE = U
NORAD_CAT_ID   = 81497
ELEMENT_SET_NO = 999
REV_AT_EPOCH   = 22726
BSTAR          = .33385E-2
MEAN_MOTION_DOT = .3724E-4
MEAN_MOTION_DDOT = 0

CCSDS_OMM_VERS = 2.0
CREATION_DATE  = 
ORIGINATOR     = 

OBJECT_NAME    = UNKNOWN
OBJECT_ID      = 
CENTER_NAME    = EARTH
REF_FRAME      = TEME
TIME_SYSTEM    = UTC
MEAN_ELEMENT_THEORY = SGP/SGP4

EPOCH          = 2026-03-09T09:03:44.483616
MEAN_MOTION    = 14.47700826
ECCENTRICITY   = .0002672
INCLINATION    = 74.0487
RA_OF_ASC_NODE = 59.1802
ARG_OF_PERICENTER = 231.2476
MEAN_ANOMALY   = 128.8445

EPHEMERIS_TYPE = 0
CLASSIFICATION_TYPE = U
NORAD_CAT_ID   = 81499
ELEMENT_SET_NO = 999
REV_AT_EPOCH   = 49495
BSTAR          = .10119E-2
MEAN_MOTION_DOT = .371E-4
MEAN_MOTION_DDOT = 0

CCSDS_OMM_VERS = 2.0
CREATION_DATE  = 
ORIGINATOR     = 

OBJECT_NAME    = UNKNOWN
OBJECT_ID      = 
CENTER_NAME    = EARTH
REF_FRAME      = TEME
TIME_SYSTEM    = UTC
MEAN_ELEMENT_THEORY = SGP/SGP4

EPOCH          = 2026-03-08T10:30:43.931808
MEAN_MOTION    = 14.13645497
ECCENTRICITY   = .023355
INCLINATION    = 98.1898
RA_OF_ASC_NODE = 147.6246
ARG_OF_PERICENTER = 260.4420
MEAN_ANOMALY   = 97.0295

EPHEMERIS_TYPE = 0
CLASSIFICATION_TYPE = U
NORAD_CAT_ID   = 81535
ELEMENT_SET_NO = 999
REV_AT_EPOCH   = 39950
BSTAR          = .60007E-3
MEAN_MOTION_DOT = .1427E-4
MEAN_MOTION_DDOT = 0

CCSDS_OMM_VERS = 2.0
CREATION_DATE  = 
ORIGINATOR     = 

OBJECT_NAME    = UNKNOWN
OBJECT_ID      = 
CENTER_NAME    = EARTH
REF_FRAME      = TEME
TIME_SYSTEM    = UTC
MEAN_ELEMENT_THEORY = SGP/SGP4

EPOCH          = 2026-03-09T02:37:33.449088
MEAN_MOTION    = 12.55981584
ECCENTRICITY   = .0019087
INCLINATION    = 101.9676
RA_OF_ASC_NODE = 295.2231
ARG_OF_PERICENTER = 110.0955
MEAN_ANOMALY   = 45.0625

EPHEMERIS_TYPE = 0
CLASSIFICATION_TYPE = U
NORAD_CAT_ID   = 81536
ELEMENT_SET_NO = 999
REV_AT_EPOCH   = 56265
BSTAR          = .4305E-2
MEAN_MOTION_DOT = .663E-5
MEAN_MOTION_DDOT = 0

CCSDS_OMM_VERS = 2.0
CREATION_DATE  = 
ORIGINATOR     = 

OBJECT_NAME    = UNKNOWN
OBJECT_ID      = 
CENTER_NAME    = EARTH
REF_FRAME      = TEME
TIME_SYSTEM    = UTC
MEAN_ELEMENT_THEORY = SGP/SGP4

EPOCH          = 2026-03-09T06:21:56.291040
MEAN_MOTION    = 14.07159149
ECCENTRICITY   = .0076287
INCLINATION    = 71.0382
RA_OF_ASC_NODE = 290.2334
ARG_OF_PERICENTER = 20.5606
MEAN_ANOMALY   = 339.8553

EPHEMERIS_TYPE = 0
CLASSIFICATION_TYPE = U
NORAD_CAT_ID   = 81537
ELEMENT_SET_NO = 999
REV_AT_EPOCH   = 63263
BSTAR          = .94706E-4
MEAN_MOTION_DOT = .117E-5
MEAN_MOTION_DDOT = 0

CCSDS_OMM_VERS = 2.0
CREATION_DATE  = 
ORIGINATOR     = 

OBJECT_NAME    = UNKNOWN
OBJECT_ID      = 
CENTER_NAME    = EARTH
REF_FRAME      = TEME
TIME_SYSTEM    = UTC
MEAN_ELEMENT_THEORY = SGP/SGP4

EPOCH          = 2026-03-07T06:05:43.686240
MEAN_MOTION    = 13.18325114
ECCENTRICITY   = .0256566
INCLINATION    = 99.0679
RA_OF_ASC_NODE = 346.3232
ARG_OF_PERICENTER = 174.9772
MEAN_ANOMALY   = 185.4012

EPHEMERIS_TYPE = 0
CLASSIFICATION_TYPE = U
NORAD_CAT_ID   = 81552
ELEMENT_SET_NO = 999
REV_AT_EPOCH   = 59038
BSTAR          = .19458E-2
MEAN_MOTION_DOT = .87E-5
MEAN_MOTION_DDOT = 0

CCSDS_OMM_VERS = 2.0
CREATION_DATE  = 
ORIGINATOR     = 

OBJECT_NAME    = UNKNOWN
OBJECT_ID      = 
CENTER_NAME    = EARTH
REF_FRAME      = TEME
TIME_SYSTEM    = UTC
MEAN_ELEMENT_THEORY = SGP/SGP4

EPOCH          = 2026-03-06T13:06:17.053344
MEAN_MOTION    = 13.31539553
ECCENTRICITY   = .0246746
INCLINATION    = 67.2921
RA_OF_ASC_NODE = 99.6646
ARG_OF_PERICENTER = 22.3697
MEAN_ANOMALY   = 129.5716

EPHEMERIS_TYPE = 0
CLASSIFICATION_TYPE = U
NORAD_CAT_ID   = 81599
ELEMENT_SET_NO = 999
REV_AT_EPOCH   = 59623
BSTAR          = .16183E-3
MEAN_MOTION_DOT = .3E-6
MEAN_MOTION_DDOT = 0

CCSDS_OMM_VERS = 2.0
CREATION_DATE  = 
ORIGINATOR     = 

OBJECT_NAME    = UNKNOWN
OBJECT_ID      = 
CENTER_NAME    = EARTH
REF_FRAME      = TEME
TIME_SYSTEM    = UTC
MEAN_ELEMENT_THEORY = SGP/SGP4

EPOCH          = 2026-03-06T03:14:31.265376
MEAN_MOTION    = 12.81426946
ECCENTRICITY   = .0149171
INCLINATION    = 56.4354
RA_OF_ASC_NODE = 337.3034
ARG_OF_PERICENTER = 254.5569
MEAN_ANOMALY   = 103.8838

EPHEMERIS_TYPE = 0
CLASSIFICATION_TYPE = U
NORAD_CAT_ID   = 81605
ELEMENT_SET_NO = 999
REV_AT_EPOCH   = 19689
BSTAR          = -.6199E-2
MEAN_MOTION_DOT = -.1613E-4
MEAN_MOTION_DDOT = 0

